{
  "type": "FeatureCollection",
  "features": [
    {
      "type": "Feature",
      "properties": {
        "norad_id": 37238,
        "name": "INTELSAT 17 (IS-17)",
        "group": "intelsat",
        "lat": -0.025431505413795914,
        "lon": -105.0638636289187,
        "alt_km": 35776.07264549317,
        "timestamp": "2025-12-05T07:38:18.516221+00:00",
        "meta_object_name": "INTELSAT 17 (IS-17)",
        "meta_object_id": "2010-065B",
        "meta_epoch": "2025-12-04T14:02:25.306368",
        "meta_mean_motion": 1.00271299,
        "meta_eccentricity": 0.0002391,
        "meta_inclination": 0.013,
        "meta_ra_of_asc_node": 289.3203,
        "meta_arg_of_pericenter": 321.9563,
        "meta_mean_anomaly": 98.9819,
        "meta_ephemeris_type": 0,
        "meta_classification_type": "U",
        "meta_norad_cat_id": 37238,
        "meta_element_set_no": 999,
        "meta_rev_at_epoch": 5129,
        "meta_bstar": 0,
        "meta_mean_motion_dot": 1.3e-07,
        "meta_mean_motion_ddot": 0,
        "tle_line1": "1 37238U 10065B   25338.58501512  .00000013  00000+0  00000+0 0  9995",
        "tle_line2": "2 37238   0.0130 289.3203 0002391 321.9563  98.9819  1.00271299 51292"
      },
      "geometry": {
        "type": "Point",
        "coordinates": [
          -105.0638636289187,
          -0.025431505413795914
        ]
      }
    },
    {
      "type": "Feature",
      "properties": {
        "norad_id": 37392,
        "name": "INTELSAT 28 (IS-28)",
        "group": "intelsat",
        "lat": 1.2370995140846899,
        "lon": 157.183302195835,
        "alt_km": 35789.79292061922,
        "timestamp": "2025-12-05T07:38:18.516232+00:00",
        "meta_object_name": "INTELSAT 28 (IS-28)",
        "meta_object_id": "2011-016A",
        "meta_epoch": "2025-12-04T10:09:06.715296",
        "meta_mean_motion": 1.00271009,
        "meta_eccentricity": 0.0004125,
        "meta_inclination": 1.3016,
        "meta_ra_of_asc_node": 85.1558,
        "meta_arg_of_pericenter": 173.9289,
        "meta_mean_anomaly": 294.9856,
        "meta_ephemeris_type": 0,
        "meta_classification_type": "U",
        "meta_norad_cat_id": 37392,
        "meta_element_set_no": 999,
        "meta_rev_at_epoch": 5133,
        "meta_bstar": 0,
        "meta_mean_motion_dot": -2.1e-06,
        "meta_mean_motion_ddot": 0,
        "tle_line1": "1 37392U 11016A   25338.42299439 -.00000210  00000+0  00000+0 0  9998",
        "tle_line2": "2 37392   1.3016  85.1558 0004125 173.9289 294.9856  1.00271009 51335"
      },
      "geometry": {
        "type": "Point",
        "coordinates": [
          157.183302195835,
          1.2370995140846899
        ]
      }
    },
    {
      "type": "Feature",
      "properties": {
        "norad_id": 37834,
        "name": "INTELSAT 18 (IS-18)",
        "group": "intelsat",
        "lat": 0.030088157945158293,
        "lon": 8.954614568924645,
        "alt_km": 35789.70598506717,
        "timestamp": "2025-12-05T07:38:18.516244+00:00",
        "meta_object_name": "INTELSAT 18 (IS-18)",
        "meta_object_id": "2011-056A",
        "meta_epoch": "2025-12-04T12:42:38.678976",
        "meta_mean_motion": 1.00270623,
        "meta_eccentricity": 0.0002108,
        "meta_inclination": 0.0139,
        "meta_ra_of_asc_node": 294.6359,
        "meta_arg_of_pericenter": 322.2341,
        "meta_mean_anomaly": 187.3892,
        "meta_ephemeris_type": 0,
        "meta_classification_type": "U",
        "meta_norad_cat_id": 37834,
        "meta_element_set_no": 999,
        "meta_rev_at_epoch": 5186,
        "meta_bstar": 0,
        "meta_mean_motion_dot": 6.8e-07,
        "meta_mean_motion_ddot": 0,
        "tle_line1": "1 37834U 11056A   25338.52961434  .00000068  00000+0  00000+0 0  9995",
        "tle_line2": "2 37834   0.0139 294.6359 0002108 322.2341 187.3892  1.00270623 51865"
      },
      "geometry": {
        "type": "Point",
        "coordinates": [
          8.954614568924645,
          0.030088157945158293
        ]
      }
    },
    {
      "type": "Feature",
      "properties": {
        "norad_id": 38098,
        "name": "INTELSAT 22 (IS-22)",
        "group": "intelsat",
        "lat": -0.02807960662610776,
        "lon": -98.95875681643706,
        "alt_km": 35779.158961457186,
        "timestamp": "2025-12-05T07:38:18.516256+00:00",
        "meta_object_name": "INTELSAT 22 (IS-22)",
        "meta_object_id": "2012-011A",
        "meta_epoch": "2025-12-04T14:04:10.138080",
        "meta_mean_motion": 1.00270945,
        "meta_eccentricity": 0.0001689,
        "meta_inclination": 0.0066,
        "meta_ra_of_asc_node": 5.2141,
        "meta_arg_of_pericenter": 257.9644,
        "meta_mean_anomaly": 93.6265,
        "meta_ephemeris_type": 0,
        "meta_classification_type": "U",
        "meta_norad_cat_id": 38098,
        "meta_element_set_no": 999,
        "meta_rev_at_epoch": 523,
        "meta_bstar": 0,
        "meta_mean_motion_dot": -4.4e-07,
        "meta_mean_motion_ddot": 0,
        "tle_line1": "1 38098U 12011A   25338.58622845 -.00000044  00000+0  00000+0 0  9991",
        "tle_line2": "2 38098   0.0066   5.2141 0001689 257.9644  93.6265  1.00270945  5235"
      },
      "geometry": {
        "type": "Point",
        "coordinates": [
          -98.95875681643706,
          -0.02807960662610776
        ]
      }
    },
    {
      "type": "Feature",
      "properties": {
        "norad_id": 38356,
        "name": "INTELSAT 19 (IS-19)",
        "group": "intelsat",
        "lat": 0.016901251645706102,
        "lon": -5.016615208531359,
        "alt_km": 35788.05851557432,
        "timestamp": "2025-12-05T07:38:18.516267+00:00",
        "meta_object_name": "INTELSAT 19 (IS-19)",
        "meta_object_id": "2012-030A",
        "meta_epoch": "2025-12-04T12:50:38.628384",
        "meta_mean_motion": 1.00269832,
        "meta_eccentricity": 0.000349,
        "meta_inclination": 0.0104,
        "meta_ra_of_asc_node": 327.051,
        "meta_arg_of_pericenter": 292.3695,
        "meta_mean_anomaly": 172.8577,
        "meta_ephemeris_type": 0,
        "meta_classification_type": "U",
        "meta_norad_cat_id": 38356,
        "meta_element_set_no": 999,
        "meta_rev_at_epoch": 4849,
        "meta_bstar": 0,
        "meta_mean_motion_dot": -4.2e-07,
        "meta_mean_motion_ddot": 0,
        "tle_line1": "1 38356U 12030A   25338.53516931 -.00000042  00000+0  00000+0 0  9990",
        "tle_line2": "2 38356   0.0104 327.0510 0003490 292.3695 172.8577  1.00269832 48495"
      },
      "geometry": {
        "type": "Point",
        "coordinates": [
          -5.016615208531359,
          0.016901251645706102
        ]
      }
    },
    {
      "type": "Feature",
      "properties": {
        "norad_id": 38740,
        "name": "INTELSAT 20 (IS-20)",
        "group": "intelsat",
        "lat": -0.03844799411890518,
        "lon": -102.54691076150088,
        "alt_km": 35781.18744520935,
        "timestamp": "2025-12-05T07:38:18.516279+00:00",
        "meta_object_name": "INTELSAT 20 (IS-20)",
        "meta_object_id": "2012-043A",
        "meta_epoch": "2025-12-04T10:37:41.477088",
        "meta_mean_motion": 1.00270685,
        "meta_eccentricity": 0.0003002,
        "meta_inclination": 0.0143,
        "meta_ra_of_asc_node": 351.6199,
        "meta_arg_of_pericenter": 199.7467,
        "meta_mean_anomaly": 110.0587,
        "meta_ephemeris_type": 0,
        "meta_classification_type": "U",
        "meta_norad_cat_id": 38740,
        "meta_element_set_no": 999,
        "meta_rev_at_epoch": 4879,
        "meta_bstar": 0,
        "meta_mean_motion_dot": 0,
        "meta_mean_motion_ddot": 0,
        "tle_line1": "1 38740U 12043A   25338.44284117  .00000000  00000+0  00000+0 0  9992",
        "tle_line2": "2 38740   0.0143 351.6199 0003002 199.7467 110.0587  1.00270685 48793"
      },
      "geometry": {
        "type": "Point",
        "coordinates": [
          -102.54691076150088,
          -0.03844799411890518
        ]
      }
    },
    {
      "type": "Feature",
      "properties": {
        "norad_id": 38749,
        "name": "INTELSAT 21 (IS-21)",
        "group": "intelsat",
        "lat": 0.015300485806627896,
        "lon": 130.91710676502103,
        "alt_km": 35790.07143804975,
        "timestamp": "2025-12-05T07:38:18.516291+00:00",
        "meta_object_name": "INTELSAT 21 (IS-21)",
        "meta_object_id": "2012-045A",
        "meta_epoch": "2025-12-04T11:44:20.063040",
        "meta_mean_motion": 1.00272097,
        "meta_eccentricity": 0.0002264,
        "meta_inclination": 0.0173,
        "meta_ra_of_asc_node": 334.2609,
        "meta_arg_of_pericenter": 271.1043,
        "meta_mean_anomaly": 306.2818,
        "meta_ephemeris_type": 0,
        "meta_classification_type": "U",
        "meta_norad_cat_id": 38749,
        "meta_element_set_no": 999,
        "meta_rev_at_epoch": 4857,
        "meta_bstar": 0,
        "meta_mean_motion_dot": -2.7e-06,
        "meta_mean_motion_ddot": 0,
        "tle_line1": "1 38749U 12045A   25338.48912110 -.00000270  00000+0  00000+0 0  9998",
        "tle_line2": "2 38749   0.0173 334.2609 0002264 271.1043 306.2818  1.00272097 48573"
      },
      "geometry": {
        "type": "Point",
        "coordinates": [
          130.91710676502103,
          0.015300485806627896
        ]
      }
    }
  ]
}